[{"OBJECT_NAME":"GEESAT-1 02","OBJECT_ID":"2022-058B","EPOCH":"2026-03-09T21:31:57.814752","MEAN_MOTION":14.81023731,"ECCENTRICITY":0.0023088,"INCLINATION":50.0005,"RA_OF_ASC_NODE":301.1233,"ARG_OF_PERICENTER":231.8367,"MEAN_ANOMALY":128.049,"EPHEMERIS_TYPE":0,"CLASSIFICATION_TYPE":"U","NORAD_CAT_ID":52786,"ELEMENT_SET_NO":999,"REV_AT_EPOCH":20521,"BSTAR":0.00032711202,"MEAN_MOTION_DOT":2.348e-5,"MEAN_MOTION_DDOT":0},{"OBJECT_NAME":"SL-14 R\/B","OBJECT_ID":"1983-061B","EPOCH":"2026-03-09T18:04:19.471296","MEAN_MOTION":14.85668739,"ECCENTRICITY":0.00192564,"INCLINATION":82.5212,"RA_OF_ASC_NODE":161.2727,"ARG_OF_PERICENTER":255.7686,"MEAN_ANOMALY":104.1392,"EPHEMERIS_TYPE":0,"CLASSIFICATION_TYPE":"U","NORAD_CAT_ID":14148,"ELEMENT_SET_NO":999,"REV_AT_EPOCH":28640,"BSTAR":7.0594723e-5,"MEAN_MOTION_DOT":6.37e-6,"MEAN_MOTION_DDOT":0}]
